SL-3 R/B                
1 19046U 88032B   26086.83612705  .00005185  00000+0  24113-3 0  9997
2 19046  97.5211  70.0282 0026232 166.6826 193.5107 15.20102569 54866
SL-16 R/B               
1 19120U 88039B   26086.87780678  .00000167  00000+0  10152-3 0  9999
2 19120  71.0165  30.0872 0023616 308.2689  51.6311 14.19618694960965
COSMOS 1953             
1 19210U 88050A   26086.88851680  .00006860  00000+0  24343-3 0  9998
2 19210  82.5083 139.9409 0012411  65.9115 294.3422 15.28801186 40563
SL-8 R/B                
1 19257U 88053B   26086.46555281  .00000336  00000+0  11726-3 0  9997
2 19257  74.0454  79.6966 0021488 256.6468 220.2542 14.38927931979158
COSMOS 1975             
1 19573U 88093A   26086.53511860  .00006249  00000+0  22496-3 0  9990
2 19573  82.5165  99.7641 0013375 106.3111 253.9601 15.28303569 22138
SL-14 R/B               
1 19574U 88093B   26086.91502182  .00000584  00000+0  64424-4 0  9994
2 19574  82.5338  24.9375 0020189 342.2296  81.6591 14.85677818  3722
SL-16 R/B               
1 19650U 88102B   26086.77552605 -.00000189  00000+0 -71179-4 0  9997
2 19650  70.9971 113.4429 0015069 334.4229  25.6147 14.16153685929452
INTERCOSMOS 24          
1 20261U 89080A   26086.51580834  .00000506  00000+0  14984-3 0  9991
2 20261  82.6011  92.7922 1186831 251.4058  95.4735 12.59580721669043
SL-14 R/B               
1 20262U 89080C   26086.88008667  .00000367  00000+0  10213-3 0  9997
2 20262  82.5957 161.5139 1230890 143.1911 226.0480 12.50511143662424
DELTA 1 R/B             
1 20323U 89089B   26086.55444773  .00000305  00000+0  83782-4 0  9994
2 20323  97.0693 291.1497 0070565  66.6602 294.2000 14.50677158898329
ARIANE 40 R/B           
1 20443U 90005H   26086.74216646  .00000239  00000+0  89344-4 0  9990
2 20443  98.3045 146.8624 0010928 145.6749 214.5148 14.39881884895406
DELTA 2 R/B(1)          
1 20453U 90008B   26086.00692096  .00073879  00000+0  81030-3 0  9993
2 20453  35.6038  61.0117 0078404  60.4502 300.4023 15.58226849928839
